STARLINK-30151          
1 56827U 23079E   25271.01106995  .00000945  00000+0  85026-4 0  9999
2 56827  43.0031 271.2889 0000868 283.3320  76.7426 15.02536990128419
STARLINK-30152          
1 56828U 23079F   25271.07421735 -.00000176  00000+0  20139-5 0  9990
2 56828  43.0042 270.9090 0001246 283.6092  76.4611 15.02538477128428
STARLINK-30128          
1 56832U 23079K   25270.97944600  .00001985  00000+0  16188-3 0  9999
2 56832  43.0033 245.4943 0001041 267.0115  93.0608 15.02548903122309
STARLINK-30131          
1 56833U 23079L   25270.96837973 -.00000035  00000+0  12511-4 0  9996
2 56833  43.0021 245.5725 0001001 268.6554  91.4173 15.02536404128708
STARLINK-30069          
1 56834U 23079M   25271.05423603  .00001181  00000+0  10248-3 0  9995
2 56834  43.0030 270.7578 0001241 277.9640  82.1061 15.02539913128420
STARLINK-30144          
1 56835U 23079N   25270.46925929  .00000479  00000+0  50559-4 0  9997
2 56835  43.0042 274.1124 0001242 269.1028  90.9673 15.02535290128333
STARLINK-30142          
1 56836U 23079P   25271.06422663  .00000757  00000+0  71076-4 0  9998
2 56836  43.0036 270.8315 0001211 274.9665  85.1040 15.02537784128423
STARLINK-30133          
1 56837U 23079Q   25271.06089281  .00001564  00000+0  13083-3 0  9994
2 56837  43.0028 270.7978 0001324 268.7523  91.3168 15.02536568128427
STARLINK-30123          
1 56838U 23079R   25271.25325032  .00006686  00000+0  25211-3 0  9999
2 56838  43.0016 231.2869 0001353 273.9449  86.1248 15.27602727128905
STARLINK-30076          
1 56839U 23079S   25271.05756517  .00000918  00000+0  83026-4 0  9995
2 56839  43.0030 270.7684 0001057 273.9968  86.0754 15.02538469128424
STARLINK-30073          
1 56840U 23079T   25271.25003472  .00516417  00000+0  80310-2 0  9991
2 56840  42.9923 181.4615 0022549 215.3935 152.4475 15.51090195  5896
STARLINK-30078          
1 56841U 23079U   25270.38852911  .00002243  00000+0  90977-4 0  9994
2 56841  43.0012 261.6034 0001017 276.6134  83.4602 15.27584481128476
STARLINK-30135          
1 56842U 23079V   25270.09700773  .00000826  00000+0  76181-4 0  9997
2 56842  43.0060 276.3772 0000864 266.6846  93.3898 15.02543736128276
STARLINK-30137          
1 56843U 23079W   25271.01438587  .00000550  00000+0  55796-4 0  9995
2 56843  43.0031 271.2213 0001011 281.0897  78.9832 15.02539468128411
STARLINK-30136          
1 56844U 23079X   25271.04103356  .00001968  00000+0  16078-3 0  9995
2 56844  43.0033 271.4085 0001397 282.3917  77.6769 15.02529986128416
STARLINK-6206           
1 56876U 23083A   25271.26985532  .00000182  00000+0  28580-4 0  9992
2 56876  43.0046 244.7215 0001402 270.6675  89.4006 15.02534858127239
