[{"OBJECT_NAME":"STARLINK-30151","OBJECT_ID":"2023-079E","EPOCH":"2025-09-28T00:15:56.443680","MEAN_MOTION":15.0253699,"ECCENTRICITY":8.688e-5,"INCLINATION":43.0031,"RA_OF_ASC_NODE":271.2889,"ARG_OF_PERICENTER":283.332,"MEAN_ANOMALY":76.7426,"EPHEMERIS_TYPE":0,"CLASSIFICATION_TYPE":"U","NORAD_CAT_ID":56827,"ELEMENT_SET_NO":999,"REV_AT_EPOCH":12841,"BSTAR":8.5026428e-5,"MEAN_MOTION_DOT":9.45e-6,"MEAN_MOTION_DDOT":0},{"OBJECT_NAME":"STARLINK-30152","OBJECT_ID":"2023-079F","EPOCH":"2025-09-28T01:46:52.379040","MEAN_MOTION":15.02538477,"ECCENTRICITY":0.00012465,"INCLINATION":43.0042,"RA_OF_ASC_NODE":270.909,"ARG_OF_PERICENTER":283.6092,"MEAN_ANOMALY":76.4611,"EPHEMERIS_TYPE":0,"CLASSIFICATION_TYPE":"U","NORAD_CAT_ID":56828,"ELEMENT_SET_NO":999,"REV_AT_EPOCH":12842,"BSTAR":2.013862e-6,"MEAN_MOTION_DOT":-1.76e-6,"MEAN_MOTION_DDOT":0},{"OBJECT_NAME":"STARLINK-30128","OBJECT_ID":"2023-079K","EPOCH":"2025-09-27T23:30:24.134400","MEAN_MOTION":15.02548903,"ECCENTRICITY":0.00010419,"INCLINATION":43.0033,"RA_OF_ASC_NODE":245.4943,"ARG_OF_PERICENTER":267.0115,"MEAN_ANOMALY":93.0608,"EPHEMERIS_TYPE":0,"CLASSIFICATION_TYPE":"U","NORAD_CAT_ID":56832,"ELEMENT_SET_NO":999,"REV_AT_EPOCH":12230,"BSTAR":0.00016188007,"MEAN_MOTION_DOT":1.985e-5,"MEAN_MOTION_DDOT":0},{"OBJECT_NAME":"STARLINK-30131","OBJECT_ID":"2023-079L","EPOCH":"2025-09-27T23:14:28.008672","MEAN_MOTION":15.02536404,"ECCENTRICITY":0.00010019,"INCLINATION":43.0021,"RA_OF_ASC_NODE":245.5725,"ARG_OF_PERICENTER":268.6554,"MEAN_ANOMALY":91.4173,"EPHEMERIS_TYPE":0,"CLASSIFICATION_TYPE":"U","NORAD_CAT_ID":56833,"ELEMENT_SET_NO":999,"REV_AT_EPOCH":12870,"BSTAR":1.2510715e-5,"MEAN_MOTION_DOT":-3.5e-7,"MEAN_MOTION_DDOT":0},{"OBJECT_NAME":"STARLINK-30069","OBJECT_ID":"2023-079M","EPOCH":"2025-09-28T01:18:05.992992","MEAN_MOTION":15.02539913,"ECCENTRICITY":0.00012417,"INCLINATION":43.003,"RA_OF_ASC_NODE":270.7578,"ARG_OF_PERICENTER":277.964,"MEAN_ANOMALY":82.1061,"EPHEMERIS_TYPE":0,"CLASSIFICATION_TYPE":"U","NORAD_CAT_ID":56834,"ELEMENT_SET_NO":999,"REV_AT_EPOCH":12842,"BSTAR":0.00010248291,"MEAN_MOTION_DOT":1.181e-5,"MEAN_MOTION_DDOT":0},{"OBJECT_NAME":"STARLINK-30144","OBJECT_ID":"2023-079N","EPOCH":"2025-09-27T11:15:44.002656","MEAN_MOTION":15.0253529,"ECCENTRICITY":0.00012423,"INCLINATION":43.0042,"RA_OF_ASC_NODE":274.1124,"ARG_OF_PERICENTER":269.1028,"MEAN_ANOMALY":90.9673,"EPHEMERIS_TYPE":0,"CLASSIFICATION_TYPE":"U","NORAD_CAT_ID":56835,"ELEMENT_SET_NO":999,"REV_AT_EPOCH":12833,"BSTAR":5.0559257e-5,"MEAN_MOTION_DOT":4.79e-6,"MEAN_MOTION_DDOT":0},{"OBJECT_NAME":"STARLINK-30142","OBJECT_ID":"2023-079P","EPOCH":"2025-09-28T01:32:29.180832","MEAN_MOTION":15.02537784,"ECCENTRICITY":0.00012112,"INCLINATION":43.0036,"RA_OF_ASC_NODE":270.8315,"ARG_OF_PERICENTER":274.9665,"MEAN_ANOMALY":85.104,"EPHEMERIS_TYPE":0,"CLASSIFICATION_TYPE":"U","NORAD_CAT_ID":56836,"ELEMENT_SET_NO":999,"REV_AT_EPOCH":12842,"BSTAR":7.1076241e-5,"MEAN_MOTION_DOT":7.57e-6,"MEAN_MOTION_DDOT":0},{"OBJECT_NAME":"STARLINK-30133","OBJECT_ID":"2023-079Q","EPOCH":"2025-09-28T01:27:41.138784","MEAN_MOTION":15.02536568,"ECCENTRICITY":0.00013242,"INCLINATION":43.0028,"RA_OF_ASC_NODE":270.7978,"ARG_OF_PERICENTER":268.7523,"MEAN_ANOMALY":91.3168,"EPHEMERIS_TYPE":0,"CLASSIFICATION_TYPE":"U","NORAD_CAT_ID":56837,"ELEMENT_SET_NO":999,"REV_AT_EPOCH":12842,"BSTAR":0.00013083062,"MEAN_MOTION_DOT":1.564e-5,"MEAN_MOTION_DDOT":0},{"OBJECT_NAME":"STARLINK-30123","OBJECT_ID":"2023-079R","EPOCH":"2025-09-28T06:04:40.827648","MEAN_MOTION":15.27602727,"ECCENTRICITY":0.00013535,"INCLINATION":43.0016,"RA_OF_ASC_NODE":231.2869,"ARG_OF_PERICENTER":273.9449,"MEAN_ANOMALY":86.1248,"EPHEMERIS_TYPE":0,"CLASSIFICATION_TYPE":"U","NORAD_CAT_ID":56838,"ELEMENT_SET_NO":999,"REV_AT_EPOCH":12890,"BSTAR":0.00025210801,"MEAN_MOTION_DOT":6.686e-5,"MEAN_MOTION_DDOT":0},{"OBJECT_NAME":"STARLINK-30076","OBJECT_ID":"2023-079S","EPOCH":"2025-09-28T01:22:53.630688","MEAN_MOTION":15.02538469,"ECCENTRICITY":0.00010578,"INCLINATION":43.003,"RA_OF_ASC_NODE":270.7684,"ARG_OF_PERICENTER":273.9968,"MEAN_ANOMALY":86.0754,"EPHEMERIS_TYPE":0,"CLASSIFICATION_TYPE":"U","NORAD_CAT_ID":56839,"ELEMENT_SET_NO":999,"REV_AT_EPOCH":12842,"BSTAR":8.3025626e-5,"MEAN_MOTION_DOT":9.18e-6,"MEAN_MOTION_DDOT":0},{"OBJECT_NAME":"STARLINK-30073","OBJECT_ID":"2023-079T","EPOCH":"2025-09-28T06:00:02.999808","MEAN_MOTION":15.51090195,"ECCENTRICITY":0.00225499,"INCLINATION":42.9923,"RA_OF_ASC_NODE":181.4615,"ARG_OF_PERICENTER":215.3935,"MEAN_ANOMALY":152.4475,"EPHEMERIS_TYPE":0,"CLASSIFICATION_TYPE":"U","NORAD_CAT_ID":56840,"ELEMENT_SET_NO":999,"REV_AT_EPOCH":589,"BSTAR":0.0080310336,"MEAN_MOTION_DOT":0.00516417,"MEAN_MOTION_DDOT":0},{"OBJECT_NAME":"STARLINK-30078","OBJECT_ID":"2023-079U","EPOCH":"2025-09-27T09:19:28.915104","MEAN_MOTION":15.27584481,"ECCENTRICITY":0.00010171,"INCLINATION":43.0012,"RA_OF_ASC_NODE":261.6034,"ARG_OF_PERICENTER":276.6134,"MEAN_ANOMALY":83.4602,"EPHEMERIS_TYPE":0,"CLASSIFICATION_TYPE":"U","NORAD_CAT_ID":56841,"ELEMENT_SET_NO":999,"REV_AT_EPOCH":12847,"BSTAR":9.0977007e-5,"MEAN_MOTION_DOT":2.243e-5,"MEAN_MOTION_DDOT":0},{"OBJECT_NAME":"STARLINK-30135","OBJECT_ID":"2023-079V","EPOCH":"2025-09-27T02:19:41.467872","MEAN_MOTION":15.02543736,"ECCENTRICITY":8.649e-5,"INCLINATION":43.006,"RA_OF_ASC_NODE":276.3772,"ARG_OF_PERICENTER":266.6846,"MEAN_ANOMALY":93.3898,"EPHEMERIS_TYPE":0,"CLASSIFICATION_TYPE":"U","NORAD_CAT_ID":56842,"ELEMENT_SET_NO":999,"REV_AT_EPOCH":12827,"BSTAR":7.6181384e-5,"MEAN_MOTION_DOT":8.26e-6,"MEAN_MOTION_DDOT":0},{"OBJECT_NAME":"STARLINK-30137","OBJECT_ID":"2023-079W","EPOCH":"2025-09-28T00:20:42.939168","MEAN_MOTION":15.02539468,"ECCENTRICITY":0.00010116,"INCLINATION":43.0031,"RA_OF_ASC_NODE":271.2213,"ARG_OF_PERICENTER":281.0897,"MEAN_ANOMALY":78.9832,"EPHEMERIS_TYPE":0,"CLASSIFICATION_TYPE":"U","NORAD_CAT_ID":56843,"ELEMENT_SET_NO":999,"REV_AT_EPOCH":12841,"BSTAR":5.5795905e-5,"MEAN_MOTION_DOT":5.5e-6,"MEAN_MOTION_DDOT":0},{"OBJECT_NAME":"STARLINK-30136","OBJECT_ID":"2023-079X","EPOCH":"2025-09-28T00:59:05.299584","MEAN_MOTION":15.02529986,"ECCENTRICITY":0.0001397,"INCLINATION":43.0033,"RA_OF_ASC_NODE":271.4085,"ARG_OF_PERICENTER":282.3917,"MEAN_ANOMALY":77.6769,"EPHEMERIS_TYPE":0,"CLASSIFICATION_TYPE":"U","NORAD_CAT_ID":56844,"ELEMENT_SET_NO":999,"REV_AT_EPOCH":12841,"BSTAR":0.00016077777,"MEAN_MOTION_DOT":1.968e-5,"MEAN_MOTION_DDOT":0},{"OBJECT_NAME":"STARLINK-6206","OBJECT_ID":"2023-083A","EPOCH":"2025-09-28T06:28:35.499648","MEAN_MOTION":15.02534858,"ECCENTRICITY":0.00014025,"INCLINATION":43.0046,"RA_OF_ASC_NODE":244.7215,"ARG_OF_PERICENTER":270.6675,"MEAN_ANOMALY":89.4006,"EPHEMERIS_TYPE":0,"CLASSIFICATION_TYPE":"U","NORAD_CAT_ID":56876,"ELEMENT_SET_NO":999,"REV_AT_EPOCH":12723,"BSTAR":2.8580211e-5,"MEAN_MOTION_DOT":1.82e-6,"MEAN_MOTION_DDOT":0}]
